[
    {
        "Altitude(m)": 578665.9744144969,
        "Argument of Periapsis(deg)": -0.037671934638287344,
        "Eccentricity": 0.0,
        "Inclination(deg)": 97.0,
        "Latitude(deg)": -39.84324333385062,
        "Longitude(deg)": 21.920045809968236,
        "Mean Anomaly(deg)": -39.89006121802086,
        "RAAN(deg)": 120.00991175603085,
        "Satellite Name": "Starlink Shell 3 1858",
        "Satellite Number": 1858,
        "Semi-Major Axis(m)": 6938478.169268562,
        "Time(s)": 950
    },
    {
        "Altitude(m)": 578411.2489327693,
        "Argument of Periapsis(deg)": -0.03806848131869037,
        "Eccentricity": 0.0,
        "Inclination(deg)": 97.0,
        "Latitude(deg)": -39.226079398754585,
        "Longitude(deg)": 21.751010259850027,
        "Mean Anomaly(deg)": -39.26458502031576,
        "RAAN(deg)": 120.01001609030484,
        "Satellite Name": "Starlink Shell 3 1858",
        "Satellite Number": 1858,
        "Semi-Major Axis(m)": 6938478.169268562,
        "Time(s)": 960
    },
    {
        "Altitude(m)": 578156.7653666522,
        "Argument of Periapsis(deg)": -0.0384650279990934,
        "Eccentricity": 0.0,
        "Inclination(deg)": 97.0,
        "Latitude(deg)": -38.608684877695666,
        "Longitude(deg)": 21.584176387315235,
        "Mean Anomaly(deg)": -38.639108822610744,
        "RAAN(deg)": 120.01012042457887,
        "Satellite Name": "Starlink Shell 3 1858",
        "Satellite Number": 1858,
        "Semi-Major Axis(m)": 6938478.169268562,
        "Time(s)": 970
    },
    {
        "Altitude(m)": 577902.6224453292,
        "Argument of Periapsis(deg)": -0.03886157467949641,
        "Eccentricity": 0.0,
        "Inclination(deg)": 97.0,
        "Latitude(deg)": -37.99106522468353,
        "Longitude(deg)": 21.419459608524352,
        "Mean Anomaly(deg)": -38.01363262490574,
        "RAAN(deg)": 120.01022475885289,
        "Satellite Name": "Starlink Shell 3 1858",
        "Satellite Number": 1858,
        "Semi-Major Axis(m)": 6938478.169268562,
        "Time(s)": 980
    },
    {
        "Altitude(m)": 577648.9185808352,
        "Argument of Periapsis(deg)": -0.03925812135989944,
        "Eccentricity": 0.0,
        "Inclination(deg)": 97.0,
        "Latitude(deg)": -37.37322570238202,
        "Longitude(deg)": 21.25677958669092,
        "Mean Anomaly(deg)": -37.38815642720075,
        "RAAN(deg)": 120.01032909312688,
        "Satellite Name": "Starlink Shell 3 1858",
        "Satellite Number": 1858,
        "Semi-Major Axis(m)": 6938478.169268562,
        "Time(s)": 990
    }
]